{
  "links" : {
    "next" : "https://api.nasa.gov/neo/rest/v1/feed?start_date=2011-08-16&end_date=2011-08-16&detailed=true&api_key=t0TVs3DtDT2H8Oy2Zy8m2eVrNsAVKAexjcZXUckd",
    "prev" : "https://api.nasa.gov/neo/rest/v1/feed?start_date=2011-08-14&end_date=2011-08-14&detailed=true&api_key=t0TVs3DtDT2H8Oy2Zy8m2eVrNsAVKAexjcZXUckd",
    "self" : "https://api.nasa.gov/neo/rest/v1/feed?start_date=2011-08-15&end_date=2011-08-15&detailed=true&api_key=t0TVs3DtDT2H8Oy2Zy8m2eVrNsAVKAexjcZXUckd"
  },
  "element_count" : 5,
  "near_earth_objects" : {
    "2011-08-15" : [ {
      "links" : {
        "self" : "https://api.nasa.gov/neo/rest/v1/neo/3599483?api_key=t0TVs3DtDT2H8Oy2Zy8m2eVrNsAVKAexjcZXUckd"
      },
      "neo_reference_id" : "3599483",
      "name" : "(2012 DL4)",
      "nasa_jpl_url" : "http://ssd.jpl.nasa.gov/sbdb.cgi?sstr=3599483",
      "absolute_magnitude_h" : 24.9,
      "estimated_diameter" : {
        "kilometers" : {
          "estimated_diameter_min" : 0.0278326768,
          "estimated_diameter_max" : 0.0622357573
        },
        "meters" : {
          "estimated_diameter_min" : 27.8326768072,
          "estimated_diameter_max" : 62.2357573367
        },
        "miles" : {
          "estimated_diameter_min" : 0.0172944182,
          "estimated_diameter_max" : 0.0386714948
        },
        "feet" : {
          "estimated_diameter_min" : 91.3145593761,
          "estimated_diameter_max" : 204.1855621004
        }
      },
      "is_potentially_hazardous_asteroid" : false,
      "close_approach_data" : [ {
        "close_approach_date" : "2011-08-15",
        "epoch_date_close_approach" : 1313391600000,
        "relative_velocity" : {
          "kilometers_per_second" : "6.9126878299",
          "kilometers_per_hour" : "24885.676187545",
          "miles_per_hour" : "15462.9914066443"
        },
        "miss_distance" : {
          "astronomical" : "0.3965528084",
          "lunar" : "154.2590332031",
          "kilometers" : "59323456",
          "miles" : "36861888"
        },
        "orbiting_body" : "Earth"
      } ],
      "orbital_data" : {
        "orbit_id" : "7",
        "orbit_determination_date" : "2017-04-06 08:50:53",
        "orbit_uncertainty" : "7",
        "minimum_orbit_intersection" : ".039218",
        "jupiter_tisserand_invariant" : "5.087",
        "epoch_osculation" : "2458000.5",
        "eccentricity" : ".3048131686702394",
        "semi_major_axis" : "1.250437843105772",
        "inclination" : "7.718217628040937",
        "ascending_node_longitude" : "154.6711659866775",
        "orbital_period" : "510.7302599161753",
        "perihelion_distance" : ".8692879219235221",
        "perihelion_argument" : "280.2931992100981",
        "aphelion_distance" : "1.631587764288022",
        "perihelion_time" : "2457958.362401134003",
        "mean_anomaly" : "29.70165815953169",
        "mean_motion" : ".7048730577645541",
        "equinox" : "J2000"
      }
    }, {
      "links" : {
        "self" : "https://api.nasa.gov/neo/rest/v1/neo/3678632?api_key=t0TVs3DtDT2H8Oy2Zy8m2eVrNsAVKAexjcZXUckd"
      },
      "neo_reference_id" : "3678632",
      "name" : "(2014 ON344)",
      "nasa_jpl_url" : "http://ssd.jpl.nasa.gov/sbdb.cgi?sstr=3678632",
      "absolute_magnitude_h" : 22.5,
      "estimated_diameter" : {
        "kilometers" : {
          "estimated_diameter_min" : 0.0840533402,
          "estimated_diameter_max" : 0.1879489824
        },
        "meters" : {
          "estimated_diameter_min" : 84.0533402073,
          "estimated_diameter_max" : 187.9489824394
        },
        "miles" : {
          "estimated_diameter_min" : 0.0522283081,
          "estimated_diameter_max" : 0.1167860472
        },
        "feet" : {
          "estimated_diameter_min" : 275.7655606856,
          "estimated_diameter_max" : 616.6305395464
        }
      },
      "is_potentially_hazardous_asteroid" : false,
      "close_approach_data" : [ {
        "close_approach_date" : "2011-08-15",
        "epoch_date_close_approach" : 1313391600000,
        "relative_velocity" : {
          "kilometers_per_second" : "14.264463547",
          "kilometers_per_hour" : "51352.0687693663",
          "miles_per_hour" : "31908.1785083876"
        },
        "miss_distance" : {
          "astronomical" : "0.2290492813",
          "lunar" : "89.1001663208",
          "kilometers" : "34265284",
          "miles" : "21291460"
        },
        "orbiting_body" : "Earth"
      } ],
      "orbital_data" : {
        "orbit_id" : "12",
        "orbit_determination_date" : "2017-07-27 06:20:48",
        "orbit_uncertainty" : "1",
        "minimum_orbit_intersection" : ".228534",
        "jupiter_tisserand_invariant" : "5.930",
        "epoch_osculation" : "2458000.5",
        "eccentricity" : ".3416951807499055",
        "semi_major_axis" : "1.00338946586105",
        "inclination" : "25.69349998154426",
        "ascending_node_longitude" : "127.09492982",
        "orbital_period" : "367.1155097119046",
        "perihelion_distance" : ".6605361209611074",
        "perihelion_argument" : "335.921724020064",
        "aphelion_distance" : "1.346242810760992",
        "perihelion_time" : "2458102.303977193079",
        "mean_anomaly" : "260.1692088185837",
        "mean_motion" : ".9806177905218754",
        "equinox" : "J2000"
      }
    } ]
  }
}